0 DELTA 1 DEB
1 21448U 75052EG  13283.79429972  .00000036  00000-0  18771-3 0  2397
2 21448 099.5969 289.9069 0129357 253.8439 183.6890 13.17899477 79548
0 DELTA 1 DEB
1 21448U 75052EG  13285.85335888  .00000011  00000-0  12524-3 0  2403
2 21448 099.5965 291.7829 0129408 248.9619 232.8034 13.17899751 79813
0 DELTA 1 DEB
1 21448U 75052EG  13288.04353035 -.00000019  00000-0  51721-4 0  2414
2 21448 099.5963 293.7781 0129457 243.7810 183.9588 13.17900444 80106
0 DELTA 1 DEB
1 21448U 75052EG  13290.55938314  .00000010  00000-0  12337-3 0  2422
2 21448 099.5965 296.0698 0129524 237.8341 240.3014 13.17900389 80435
0 DELTA 1 DEB
1 21448U 75052EG  13292.60818072 -.00000023  00000-0  41042-4 0  2430
2 21448 099.5967 297.9361 0129558 232.9844 240.7260 13.17900777 80703
0 DELTA 1 DEB
1 21448U 75052EG  13295.50418687  .00000022  00000-0  15116-3 0  2441
2 21448 099.5969 300.5743 0129640 226.1379 300.6894 13.17900659 81080
